{"fetched_at":"2026-03-30T06:02:59Z","count":15439,"tles":[{"name":"STARLINK-34327","line1":"1 64208U 25117F   26087.91950676  .00021512  00000+0  73646-3 0  9991","line2":"2 64208  53.1593 310.0177 0001124  61.2580 298.8534 15.30195014 46432","category":"Starlink"}]}